{
  "type": "FeatureCollection",
  "features": [
    {
      "type": "Feature",
      "properties": {
        "norad_id": 64694,
        "name": "GOSAT-GW (IBUKI GW)",
        "group": "resource",
        "lat": 59.782239731634384,
        "lon": -77.08477617375776,
        "alt_km": 662.1082769564946,
        "timestamp": "2025-12-27T17:24:57.051537+00:00",
        "meta_object_name": "GOSAT-GW (IBUKI GW)",
        "meta_object_id": "2025-141A",
        "meta_epoch": "2025-12-27T07:19:18.626016",
        "meta_mean_motion": 14.67557386,
        "meta_eccentricity": 0.00014662,
        "meta_inclination": 98.0442,
        "meta_ra_of_asc_node": 296.5549,
        "meta_arg_of_pericenter": 82.1908,
        "meta_mean_anomaly": 277.9463,
        "meta_ephemeris_type": 0,
        "meta_classification_type": "U",
        "meta_norad_cat_id": 64694,
        "meta_element_set_no": 999,
        "meta_rev_at_epoch": 2663,
        "meta_bstar": 0.00021991766,
        "meta_mean_motion_dot": 1.2e-05,
        "meta_mean_motion_ddot": 0,
        "tle_line1": "1 64694U 25141A   25361.30507669  .00001200  00000+0  21992-3 0  9993",
        "tle_line2": "2 64694  98.0442 296.5549 0001466  82.1908 277.9463 14.67557386 26630"
      },
      "geometry": {
        "type": "Point",
        "coordinates": [
          -77.08477617375776,
          59.782239731634384
        ]
      }
    },
    {
      "type": "Feature",
      "properties": {
        "norad_id": 64876,
        "name": "IONOSFERA-M 3",
        "group": "resource",
        "lat": 77.36898070584756,
        "lon": -174.4750446872513,
        "alt_km": 812.6340160857098,
        "timestamp": "2025-12-27T17:24:57.051547+00:00",
        "meta_object_name": "IONOSFERA-M 3",
        "meta_object_id": "2025-155A",
        "meta_epoch": "2025-12-27T11:52:56.987328",
        "meta_mean_motion": 14.2144471,
        "meta_eccentricity": 0.0001745,
        "meta_inclination": 98.5803,
        "meta_ra_of_asc_node": 322.945,
        "meta_arg_of_pericenter": 35.84,
        "meta_mean_anomaly": 324.2895,
        "meta_ephemeris_type": 0,
        "meta_classification_type": "U",
        "meta_norad_cat_id": 64876,
        "meta_element_set_no": 999,
        "meta_rev_at_epoch": 2201,
        "meta_bstar": 7.032e-05,
        "meta_mean_motion_dot": 1.11e-06,
        "meta_mean_motion_ddot": 0,
        "tle_line1": "1 64876U 25155A   25361.49510402  .00000111  00000+0  70320-4 0  9999",
        "tle_line2": "2 64876  98.5803 322.9450 0001745  35.8400 324.2895 14.21444710 22014"
      },
      "geometry": {
        "type": "Point",
        "coordinates": [
          -174.4750446872513,
          77.36898070584756
        ]
      }
    },
    {
      "type": "Feature",
      "properties": {
        "norad_id": 64877,
        "name": "IONOSFERA-M 4",
        "group": "resource",
        "lat": -76.88661952929924,
        "lon": 3.487931091880735,
        "alt_km": 828.3359128513421,
        "timestamp": "2025-12-27T17:24:57.051558+00:00",
        "meta_object_name": "IONOSFERA-M 4",
        "meta_object_id": "2025-155B",
        "meta_epoch": "2025-12-27T12:43:25.733280",
        "meta_mean_motion": 14.21445902,
        "meta_eccentricity": 0.000121,
        "meta_inclination": 98.5803,
        "meta_ra_of_asc_node": 322.8984,
        "meta_arg_of_pericenter": 50.2005,
        "meta_mean_anomaly": 309.9279,
        "meta_ephemeris_type": 0,
        "meta_classification_type": "U",
        "meta_norad_cat_id": 64877,
        "meta_element_set_no": 999,
        "meta_rev_at_epoch": 2201,
        "meta_bstar": 6.9421e-05,
        "meta_mean_motion_dot": 1.09e-06,
        "meta_mean_motion_ddot": 0,
        "tle_line1": "1 64877U 25155B   25361.53015895  .00000109  00000+0  69421-4 0  9998",
        "tle_line2": "2 64877  98.5803 322.8984 0001210  50.2005 309.9279 14.21445902 22015"
      },
      "geometry": {
        "type": "Point",
        "coordinates": [
          3.487931091880735,
          -76.88661952929924
        ]
      }
    },
    {
      "type": "Feature",
      "properties": {
        "norad_id": 64899,
        "name": "MICROCARB",
        "group": "resource",
        "lat": -76.20515265590186,
        "lon": 111.77894400200202,
        "alt_km": 674.183713529972,
        "timestamp": "2025-12-27T17:24:57.051568+00:00",
        "meta_object_name": "MICROCARB",
        "meta_object_id": "2025-156A",
        "meta_epoch": "2025-12-27T04:43:23.827584",
        "meta_mean_motion": 14.72080893,
        "meta_eccentricity": 0.00176712,
        "meta_inclination": 98.0009,
        "meta_ra_of_asc_node": 76.3095,
        "meta_arg_of_pericenter": 101.5211,
        "meta_mean_anomaly": 258.7982,
        "meta_ephemeris_type": 0,
        "meta_classification_type": "U",
        "meta_norad_cat_id": 64899,
        "meta_element_set_no": 999,
        "meta_rev_at_epoch": 2266,
        "meta_bstar": 0.00014485368,
        "meta_mean_motion_dot": 8.63e-06,
        "meta_mean_motion_ddot": 0,
        "tle_line1": "1 64899U 25156A   25361.19680356  .00000863  00000+0  14485-3 0  9991",
        "tle_line2": "2 64899  98.0009  76.3095 0017671 101.5211 258.7982 14.72080893 22666"
      },
      "geometry": {
        "type": "Point",
        "coordinates": [
          111.77894400200202,
          -76.20515265590186
        ]
      }
    },
    {
      "type": "Feature",
      "properties": {
        "norad_id": 64900,
        "name": "CO3D 3",
        "group": "resource",
        "lat": 34.60873509326833,
        "lon": 72.70834623493114,
        "alt_km": 502.23294535426794,
        "timestamp": "2025-12-27T17:24:57.051578+00:00",
        "meta_object_name": "CO3D 3",
        "meta_object_id": "2025-156B",
        "meta_epoch": "2025-12-27T12:31:24.282912",
        "meta_mean_motion": 15.20198828,
        "meta_eccentricity": 0.0001347,
        "meta_inclination": 97.4339,
        "meta_ra_of_asc_node": 77.677,
        "meta_arg_of_pericenter": 65.3377,
        "meta_mean_anomaly": 294.7998,
        "meta_ephemeris_type": 0,
        "meta_classification_type": "U",
        "meta_norad_cat_id": 64900,
        "meta_element_set_no": 999,
        "meta_rev_at_epoch": 2345,
        "meta_bstar": 0.00042195,
        "meta_mean_motion_dot": 9.077e-05,
        "meta_mean_motion_ddot": 0,
        "tle_line1": "1 64900U 25156B   25361.52180883  .00009077  00000+0  42195-3 0  9996",
        "tle_line2": "2 64900  97.4339  77.6770 0001347  65.3377 294.7998 15.20198828 23452"
      },
      "geometry": {
        "type": "Point",
        "coordinates": [
          72.70834623493114,
          34.60873509326833
        ]
      }
    },
    {
      "type": "Feature",
      "properties": {
        "norad_id": 64901,
        "name": "CO3D 4",
        "group": "resource",
        "lat": 33.76237264142645,
        "lon": 72.870567684474,
        "alt_km": 503.5190945231834,
        "timestamp": "2025-12-27T17:24:57.051588+00:00",
        "meta_object_name": "CO3D 4",
        "meta_object_id": "2025-156C",
        "meta_epoch": "2025-12-27T12:31:37.762176",
        "meta_mean_motion": 15.20213189,
        "meta_eccentricity": 0.0001479,
        "meta_inclination": 97.4337,
        "meta_ra_of_asc_node": 77.6771,
        "meta_arg_of_pericenter": 147.0802,
        "meta_mean_anomaly": 213.0526,
        "meta_ephemeris_type": 0,
        "meta_classification_type": "U",
        "meta_norad_cat_id": 64901,
        "meta_element_set_no": 999,
        "meta_rev_at_epoch": 2345,
        "meta_bstar": 0.0003243,
        "meta_mean_motion_dot": 6.962e-05,
        "meta_mean_motion_ddot": 0,
        "tle_line1": "1 64901U 25156C   25361.52196484  .00006962  00000+0  32430-3 0  9992",
        "tle_line2": "2 64901  97.4337  77.6771 0001479 147.0802 213.0526 15.20213189 23458"
      },
      "geometry": {
        "type": "Point",
        "coordinates": [
          72.870567684474,
          33.76237264142645
        ]
      }
    },
    {
      "type": "Feature",
      "properties": {
        "norad_id": 64902,
        "name": "CO3D 2",
        "group": "resource",
        "lat": -36.325738763050694,
        "lon": -107.7322263525454,
        "alt_km": 512.115862166077,
        "timestamp": "2025-12-27T17:24:57.051599+00:00",
        "meta_object_name": "CO3D 2",
        "meta_object_id": "2025-156D",
        "meta_epoch": "2025-12-27T11:43:36.590880",
        "meta_mean_motion": 15.20204292,
        "meta_eccentricity": 7.88e-05,
        "meta_inclination": 97.434,
        "meta_ra_of_asc_node": 77.5433,
        "meta_arg_of_pericenter": 57.3354,
        "meta_mean_anomaly": 302.7957,
        "meta_ephemeris_type": 0,
        "meta_classification_type": "U",
        "meta_norad_cat_id": 64902,
        "meta_element_set_no": 999,
        "meta_rev_at_epoch": 2344,
        "meta_bstar": 0.00065115,
        "meta_mean_motion_dot": 0.00014056,
        "meta_mean_motion_ddot": 0,
        "tle_line1": "1 64902U 25156D   25361.48861795  .00014056  00000+0  65115-3 0  9991",
        "tle_line2": "2 64902  97.4340  77.5433 0000788  57.3354 302.7957 15.20204292 23442"
      },
      "geometry": {
        "type": "Point",
        "coordinates": [
          -107.7322263525454,
          -36.325738763050694
        ]
      }
    }
  ]
}